SAUDISAT 1C (SO-50)     
1 27607U 02058C   26116.83731362  .00001136  00000+0  15127-3 0  9995
2 27607  64.5515 287.8458 0075591 271.8075  87.4374 14.82930098256841
SAUDISAT 2              
1 28371U 04025F   26117.26709760  .00000341  00000+0  87064-4 0  9992
2 28371  98.5511 115.9357 0025970  93.0749 267.3420 14.56651614158331
SAUDISAT 3              
1 31118U 07012B   26117.25657209  .00000350  00000+0  64697-4 0  9990
2 31118  98.1421  67.6367 0015402  33.9968 326.2223 14.71393180 20252
PISAT                   
1 41784U 16059B   26117.26018470  .00001181  00000+0  20871-3 0  9991
2 41784  97.8188 119.9048 0029322  11.3418 348.8443 14.68889095512263
FLYING LAPTOP           
1 42831U 17042G   26117.31985337  .00002676  00000+0  21450-3 0  9993
2 42831  97.4461 274.8924 0018008 298.7085  61.2329 15.00817212478822
SALSAT                  
1 46495U 20068K   26117.24379231  .00009696  00000+0  34616-3 0  9994
2 46495  97.8862 117.2385 0011569 117.3130 242.9288 15.29030388307571
